CTC2_L_00328001-01
1 10000U 25997RG  26075.70045139  .00000000  00000+0  00000-0 0  9991
2 10000  50.0000   0.0000 0000000   0.0000   0.0000 13.56072486    11
CTC2_L_00328001-02
1 10001U 25019OP  26075.70045139  .00000000  00000+0  00000-0 0  9997
2 10001  50.0000   0.0000 0000000   0.0000  90.0000 13.56072486    11
CTC2_L_00328001-03
1 10002U 26052TB  26075.70045139  .00000000  00000+0  00000-0 0  9996
2 10002  50.0000   0.0000 0000000   0.0000 180.0000 13.56072486    12
CTC2_L_00328001-04
1 10003U 23699GN  26075.70045139  .00000000  00000+0  00000-0 0  9991
2 10003  50.0000   0.0000 0000000   0.0000 270.0000 13.56072486    13
CTC2_L_00328002-01
1 10004U 25574NZ  26075.70045139  .00000000  00000+0  00000-0 0  9996
2 10004  50.0000  12.0000 0000000   0.0000  12.0000 13.56072486    11
CTC2_L_00328002-02
1 10005U 23475WM  26075.70045139  .00000000  00000+0  00000-0 0  9995
2 10005  50.0000  12.0000 0000000   0.0000 102.0000 13.56072486    12
CTC2_L_00328002-03
1 10006U 26503SX  26075.70045139  .00000000  00000+0  00000-0 0  9991
2 10006  50.0000  12.0000 0000000   0.0000 192.0000 13.56072486    12
CTC2_L_00328002-04
1 10007U 26577LY  26075.70045139  .00000000  00000+0  00000-0 0  9993
2 10007  50.0000  12.0000 0000000   0.0000 282.0000 13.56072486    13
CTC2_L_00328003-01
1 10008U 23059HQ  26075.70045139  .00000000  00000+0  00000-0 0  9996
2 10008  50.0000  24.0000 0000000   0.0000  24.0000 13.56072486    11
CTC2_L_00328003-02
1 10009U 26226RD  26075.70045139  .00000000  00000+0  00000-0 0  9996
2 10009  50.0000  24.0000 0000000   0.0000 114.0000 13.56072486    12
CTC2_L_00328003-03
1 10010U 22907YJ  26075.70045139  .00000000  00000+0  00000-0 0  9990
2 10010  50.0000  24.0000 0000000   0.0000 204.0000 13.56072486    14
CTC2_L_00328003-04
1 10011U 23504VN  26075.70045139  .00000000  00000+0  00000-0 0  9995
2 10011  50.0000  24.0000 0000000   0.0000 294.0000 13.56072486    14
CTC2_L_00328004-01
1 10012U 25221QE  26075.70045139  .00000000  00000+0  00000-0 0  9994
2 10012  50.0000  36.0000 0000000   0.0000  36.0000 13.56072486    12
CTC2_L_00328004-02
1 10013U 23127HX  26075.70045139  .00000000  00000+0  00000-0 0  9998
2 10013  50.0000  36.0000 0000000   0.0000 126.0000 13.56072486    13
CTC2_L_00328004-03
1 10014U 24393NU  26075.70045139  .00000000  00000+0  00000-0 0  9995
2 10014  50.0000  36.0000 0000000   0.0000 216.0000 13.56072486    14
CTC2_L_00328004-04
1 10015U 23687MQ  26075.70045139  .00000000  00000+0  00000-0 0  9991
2 10015  50.0000  36.0000 0000000   0.0000 306.0000 13.56072486    15
CTC2_L_00328005-01
1 10016U 24199EB  26075.70045139  .00000000  00000+0  00000-0 0  9991
2 10016  50.0000  48.0000 0000000   0.0000  48.0000 13.56072486    12
CTC2_L_00328005-02
1 10017U 24563KT  26075.70045139  .00000000  00000+0  00000-0 0  9997
2 10017  50.0000  48.0000 0000000   0.0000 138.0000 13.56072486    13
CTC2_L_00328005-03
1 10018U 26128SL  26075.70045139  .00000000  00000+0  00000-0 0  9997
2 10018  50.0000  48.0000 0000000   0.0000 228.0000 13.56072486    14
CTC2_L_00328005-04
1 10019U 22080XO  26075.70045139  .00000000  00000+0  00000-0 0  9991
2 10019  50.0000  48.0000 0000000   0.0000 318.0000 13.56072486    15
CTC2_L_00328006-01
1 10020U 25820CX  26075.70045139  .00000000  00000+0  00000-0 0  9998
2 10020  50.0000  60.0000 0000000   0.0000  60.0000 13.56072486    15
CTC2_L_00328006-02
1 10021U 23627G   26075.70045139  .00000000  00000+0  00000-0 0  9992
2 10021  50.0000  60.0000 0000000   0.0000 150.0000 13.56072486    16
CTC2_L_00328006-03
1 10022U 24169YF  26075.70045139  .00000000  00000+0  00000-0 0  9995
2 10022  50.0000  60.0000 0000000   0.0000 240.0000 13.56072486    17
CTC2_L_00328006-04
1 10023U 26700PP  26075.70045139  .00000000  00000+0  00000-0 0  9999
2 10023  50.0000  60.0000 0000000   0.0000 330.0000 13.56072486    18
CTC2_L_00328007-01
1 10024U 22436SZ  26075.70045139  .00000000  00000+0  00000-0 0  9992
2 10024  50.0000  72.0000 0000000   0.0000  72.0000 13.56072486    15
CTC2_L_00328007-02
1 10025U 22805UD  26075.70045139  .00000000  00000+0  00000-0 0  9993
2 10025  50.0000  72.0000 0000000   0.0000 162.0000 13.56072486    16
CTC2_L_00328007-03
1 10026U 22338DC  26075.70045139  .00000000  00000+0  00000-0 0  9995
2 10026  50.0000  72.0000 0000000   0.0000 252.0000 13.56072486    17
CTC2_L_00328007-04
1 10027U 24844HW  26075.70045139  .00000000  00000+0  00000-0 0  9990
2 10027  50.0000  72.0000 0000000   0.0000 342.0000 13.56072486    18
CTC2_L_00328008-01
1 10028U 25469JK  26075.70045139  .00000000  00000+0  00000-0 0  9995
2 10028  50.0000  84.0000 0000000   0.0000  84.0000 13.56072486    15
CTC2_L_00328008-02
1 10029U 24538MV  26075.70045139  .00000000  00000+0  00000-0 0  9992
2 10029  50.0000  84.0000 0000000   0.0000 174.0000 13.56072486    16
CTC2_L_00328008-03
1 10030U 25963MH  26075.70045139  .00000000  00000+0  00000-0 0  9997
2 10030  50.0000  84.0000 0000000   0.0000 264.0000 13.56072486    18
CTC2_L_00328008-04
1 10031U 26055HA  26075.70045139  .00000000  00000+0  00000-0 0  9991
2 10031  50.0000  84.0000 0000000   0.0000 354.0000 13.56072486    19
CTC2_L_00328009-01
1 10032U 22067LR  26075.70045139  .00000000  00000+0  00000-0 0  9991
2 10032  50.0000  96.0000 0000000   0.0000  96.0000 13.56072486    16
CTC2_L_00328009-02
1 10033U 23367AI  26075.70045139  .00000000  00000+0  00000-0 0  9996
2 10033  50.0000  96.0000 0000000   0.0000 186.0000 13.56072486    17
CTC2_L_00328009-03
1 10034U 22553RV  26075.70045139  .00000000  00000+0  00000-0 0  9993
2 10034  50.0000  96.0000 0000000   0.0000 276.0000 13.56072486    18
CTC2_L_00328009-04
1 10035U 22918YC  26075.70045139  .00000000  00000+0  00000-0 0  9999
2 10035  50.0000  96.0000 0000000   0.0000   6.0000 13.56072486    10
CTC2_L_00328010-01
1 10036U 24363YS  26075.70045139  .00000000  00000+0  00000-0 0  9996
2 10036  50.0000 108.0000 0000000   0.0000 108.0000 13.56072486    18
CTC2_L_00328010-02
1 10037U 26034JQ  26075.70045139  .00000000  00000+0  00000-0 0  9994
2 10037  50.0000 108.0000 0000000   0.0000 198.0000 13.56072486    18
CTC2_L_00328010-03
1 10038U 25822FE  26075.70045139  .00000000  00000+0  00000-0 0  9999
2 10038  50.0000 108.0000 0000000   0.0000 288.0000 13.56072486    19
CTC2_L_00328010-04
1 10039U 23297BN  26075.70045139  .00000000  00000+0  00000-0 0  9994
2 10039  50.0000 108.0000 0000000   0.0000  18.0000 13.56072486    11
CTC2_L_00328011-01
1 10040U 26958YR  26075.70045139  .00000000  00000+0  00000-0 0  9993
2 10040  50.0000 120.0000 0000000   0.0000 120.0000 13.56072486    11
CTC2_L_00328011-02
1 10041U 26576CJ  26075.70045139  .00000000  00000+0  00000-0 0  9990
2 10041  50.0000 120.0000 0000000   0.0000 210.0000 13.56072486    12
CTC2_L_00328011-03
1 10042U 26444NL  26075.70045139  .00000000  00000+0  00000-0 0  9995
2 10042  50.0000 120.0000 0000000   0.0000 300.0000 13.56072486    13
CTC2_L_00328011-04
1 10043U 22765LA  26075.70045139  .00000000  00000+0  00000-0 0  9998
2 10043  50.0000 120.0000 0000000   0.0000  30.0000 13.56072486    14
CTC2_L_00328012-01
1 10044U 22205SV  26075.70045139  .00000000  00000+0  00000-0 0  9998
2 10044  50.0000 132.0000 0000000   0.0000 132.0000 13.56072486    11
CTC2_L_00328012-02
1 10045U 24285QD  26075.70045139  .00000000  00000+0  00000-0 0  9999
2 10045  50.0000 132.0000 0000000   0.0000 222.0000 13.56072486    12
CTC2_L_00328012-03
1 10046U 22697UP  26075.70045139  .00000000  00000+0  00000-0 0  9995
2 10046  50.0000 132.0000 0000000   0.0000 312.0000 13.56072486    13
CTC2_L_00328012-04
1 10047U 25748NM  26075.70045139  .00000000  00000+0  00000-0 0  9996
2 10047  50.0000 132.0000 0000000   0.0000  42.0000 13.56072486    14
CTC2_L_00328013-01
1 10048U 22848RW  26075.70045139  .00000000  00000+0  00000-0 0  9995
2 10048  50.0000 144.0000 0000000   0.0000 144.0000 13.56072486    11
CTC2_L_00328013-02
1 10049U 23303KV  26075.70045139  .00000000  00000+0  00000-0 0  9993
2 10049  50.0000 144.0000 0000000   0.0000 234.0000 13.56072486    12
CTC2_L_00328013-03
1 10050U 23269BK  26075.70045139  .00000000  00000+0  00000-0 0  9996
2 10050  50.0000 144.0000 0000000   0.0000 324.0000 13.56072486    14
CTC2_L_00328013-04
1 10051U 23266WW  26075.70045139  .00000000  00000+0  00000-0 0  9994
2 10051  50.0000 144.0000 0000000   0.0000  54.0000 13.56072486    15
CTC2_L_00328014-01
1 10052U 22820GF  26075.70045139  .00000000  00000+0  00000-0 0  9990
2 10052  50.0000 156.0000 0000000   0.0000 156.0000 13.56072486    12
CTC2_L_00328014-02
1 10053U 24162TE  26075.70045139  .00000000  00000+0  00000-0 0  9992
2 10053  50.0000 156.0000 0000000   0.0000 246.0000 13.56072486    13
CTC2_L_00328014-03
1 10054U 24332ED  26075.70045139  .00000000  00000+0  00000-0 0  9992
2 10054  50.0000 156.0000 0000000   0.0000 336.0000 13.56072486    14
CTC2_L_00328014-04
1 10055U 22312OJ  26075.70045139  .00000000  00000+0  00000-0 0  9999
2 10055  50.0000 156.0000 0000000   0.0000  66.0000 13.56072486    15
CTC2_L_00328015-01
1 10056U 24848ML  26075.70045139  .00000000  00000+0  00000-0 0  9996
2 10056  50.0000 168.0000 0000000   0.0000 168.0000 13.56072486    12
CTC2_L_00328015-02
1 10057U 26989S   26075.70045139  .00000000  00000+0  00000-0 0  9995
2 10057  50.0000 168.0000 0000000   0.0000 258.0000 13.56072486    13
CTC2_L_00328015-03
1 10058U 25411YR  26075.70045139  .00000000  00000+0  00000-0 0  9995
2 10058  50.0000 168.0000 0000000   0.0000 348.0000 13.56072486    14
CTC2_L_00328015-04
1 10059U 22378YB  26075.70045139  .00000000  00000+0  00000-0 0  9995
2 10059  50.0000 168.0000 0000000   0.0000  78.0000 13.56072486    15
CTC2_L_00328016-01
1 10060U 26721RF  26075.70045139  .00000000  00000+0  00000-0 0  9993
2 10060  50.0000 180.0000 0000000   0.0000 180.0000 13.56072486    15
CTC2_L_00328016-02
1 10061U 24018OB  26075.70045139  .00000000  00000+0  00000-0 0  9991
2 10061  50.0000 180.0000 0000000   0.0000 270.0000 13.56072486    16
